      2.10          N: GNSS NAV DATA                        RINEX VERSION / TYPE
fic2rin                                 09/26/2024 00:59:02 PGM / RUN BY / DATE
                                                            END OF HEADER
3  24  9 25  1 59 28.0  .549275428057D-03  .127329258248D-10  .000000000000D+00
     .390000000000D+02 -.690312500000D+02  .371551190884D-08 -.291154550723D+01
    -.347010791302D-05  .572180410381D-02  .519119203091D-05  .515365815735D+04
     .266368000000D+06 -.931322574615D-08  .943482479352D+00 -.167638063431D-07
     .986069515353D+00  .292312500000D+03  .116115648697D+01 -.767174813053D-08
     .725030200418D-10  .100000000000D+01  .233300000000D+04  .000000000000D+00
     .240000000000D+01  .000000000000D+00  .139698386192D-08  .390000000000D+02
     .259200000000D+06  .400000000000D+01
17 24  9 25 18  0  0.0  .615861266851D-03 -.119371179608D-10  .000000000000D+00
     .500000000000D+01  .667187500000D+02  .394623580513D-08  .250773671257D+01
     .358931720257D-05  .134969764622D-01  .799074769020D-05  .515355160904D+04
     .324000000000D+06  .102445483208D-06 -.109565422610D+01  .651925802231D-07
     .966894951536D+00  .223531250000D+03 -.129498853091D+01 -.755924344426D-08
    -.276440086268D-09  .100000000000D+01  .233300000000D+04  .000000000000D+00
     .240000000000D+01  .000000000000D+00 -.111758708954D-07  .500000000000D+01
     .316800000000D+06  .400000000000D+01
10 24  9 25 18  0  0.0 -.137091614306D-03 -.127329258248D-10  .000000000000D+00
     .260000000000D+02 -.740625000000D+02  .397195116199D-08 -.171082029440D+01
    -.387243926525D-05  .969196087681D-02  .426173210144D-05  .515368764496D+04
     .324000000000D+06  .111758708954D-06  .940482278679D+00 -.316649675369D-07
     .985711063851D+00  .304406250000D+03 -.237738364581D+01 -.784389815841D-08
     .198936857947D-09  .100000000000D+01  .233300000000D+04  .000000000000D+00
     .240000000000D+01  .000000000000D+00  .232830643654D-08  .260000000000D+02
     .316800000000D+06  .400000000000D+01
9  24  9 25 18  0  0.0  .371760688722D-03  .162572177942D-10  .000000000000D+00
     .930000000000D+02 -.816562500000D+02  .464233622908D-08  .311284643475D+01
    -.413134694099D-05  .313984113745D-02  .816583633423D-05  .515359377098D+04
     .324000000000D+06  .931322574615D-07  .196036115332D+01  .126659870148D-06
     .959303906195D+00  .222000000000D+03  .198244723426D+01 -.796926052312D-08
     .218937691062D-09  .100000000000D+01  .233300000000D+04  .000000000000D+00
     .240000000000D+01  .000000000000D+00  .465661287308D-09  .930000000000D+02
     .316800000000D+06  .400000000000D+01
26 24  9 25 18  0  0.0  .707204453647D-04 -.886757334229D-11  .000000000000D+00
     .140000000000D+02  .245937500000D+02  .526843373713D-08 -.182191986120D+01
     .124797224998D-05  .924542162102D-02  .685267150402D-05  .515369705772D+04
     .324000000000D+06  .633299350739D-07 -.228734098390D+01 -.117346644402D-06
     .930462413357D+00  .231812500000D+03  .556825563848D+00 -.817926927082D-08
    -.212866009581D-09  .100000000000D+01  .233300000000D+04  .000000000000D+00
     .240000000000D+01  .000000000000D+00  .651925802231D-08  .140000000000D+02
     .316800000000D+06  .400000000000D+01
14 24  9 25 18  0  0.0  .503625255078D-03  .852651282912D-11  .000000000000D+00
     .100000000000D+02  .237500000000D+02  .495377777330D-08 -.106461540983D+01
     .115111470222D-05  .490272941533D-02  .721774995327D-05  .515369105911D+04
     .324000000000D+06  .109896063805D-06 -.218098345728D+01 -.135973095894D-06
     .944924470388D+00  .236000000000D+03 -.285547424180D+01 -.812640992616D-08
    -.379301513716D-09  .100000000000D+01  .233300000000D+04  .000000000000D+00
     .240000000000D+01  .000000000000D+00 -.791624188423D-08  .100000000000D+02
     .316800000000D+06  .400000000000D+01
12 24  9 25 18  0  0.0 -.540670473129D-03 -.272848410532D-11  .000000000000D+00
     .470000000000D+02  .289687500000D+02  .467305179422D-08 -.942210953382D+00
     .149942934513D-05  .870964617934D-02  .727362930775D-05  .515358813286D+04
     .324000000000D+06 -.139698386192D-06 -.213461547146D+01  .139698386192D-06
     .961562076783D+00  .239906250000D+03  .146413385197D+01 -.814569644381D-08
    -.356800576462D-09  .100000000000D+01  .233300000000D+04  .000000000000D+00
     .240000000000D+01  .000000000000D+00 -.125728547573D-07  .470000000000D+02
     .316800000000D+06  .400000000000D+01
22 24  9 25 18  0  0.0 -.653136521578D-04 -.363797880709D-11  .000000000000D+00
     .430000000000D+02  .282187500000D+02  .448554398377D-08  .308706681336D+01
     .154785811901D-05  .140578879509D-01  .742822885513D-05  .515368589020D+04
     .324000000000D+06  .763684511185D-07 -.211359697840D+01  .109896063805D-06
     .960308819734D+00  .236593750000D+03 -.111180648748D+01 -.768424865123D-08
    -.411445709794D-09  .100000000000D+01  .233300000000D+04  .000000000000D+00
     .240000000000D+01  .000000000000D+00 -.111758708954D-07  .430000000000D+02
     .316800000000D+06  .400000000000D+01
27 24  9 25 18  0  0.0 -.340426340699D-04 -.454747350886D-12  .000000000000D+00
     .480000000000D+02  .785000000000D+02  .413481508879D-08  .265680452897D+01
     .390410423279D-05  .126324784942D-01  .785291194916D-05  .515368865967D+04
     .324000000000D+06  .223517417908D-07 -.116478272002D+01 -.186264514923D-06
     .960113626964D+00  .226812500000D+03  .798693205326D+00 -.772603610613D-08
    -.206437170365D-09  .100000000000D+01  .233300000000D+04  .000000000000D+00
     .240000000000D+01  .000000000000D+00  .186264514923D-08  .480000000000D+02
     .316800000000D+06  .400000000000D+01
24 24  9 25 18  0  0.0 -.486259814352D-03  .568434188608D-12  .000000000000D+00
     .420000000000D+02  .496875000000D+01  .545737017852D-08  .716652133312D+00
     .501051545143D-06  .159773398191D-01  .845082104206D-05  .515369538879D+04
     .324000000000D+06 -.145286321640D-06  .293374263096D+01  .141561031342D-06
     .934444188174D+00  .204906250000D+03  .101089422574D+01 -.859785813530D-08
     .178578867098D-10  .100000000000D+01  .233300000000D+04  .000000000000D+00
     .240000000000D+01  .000000000000D+00  .232830643654D-08  .420000000000D+02
     .316800000000D+06  .400000000000D+01
31 24  9 25 18  0  0.0 -.224239192903D-03  .454747350886D-12  .000000000000D+00
     .890000000000D+02  .221875000000D+01  .482984403953D-08 -.125616519399D+01
     .182539224625D-06  .106713982532D-01  .772252678871D-05  .515377988052D+04
     .324000000000D+06  .251457095146D-06  .305487637920D+01  .316649675369D-07
     .954684587291D+00  .225593750000D+03  .733258177249D+00 -.794390232399D-08
     .138934358602D-09  .100000000000D+01  .233300000000D+04  .000000000000D+00
     .240000000000D+01  .000000000000D+00 -.130385160446D-07  .890000000000D+02
     .316800000000D+06  .400000000000D+01
29 24  9 25 18  0  0.0 -.575515441597D-03  .250111042988D-11  .000000000000D+00
     .450000000000D+02  .626250000000D+02  .405302596766D-08  .251624790851D+01
     .333972275257D-05  .291980919428D-02  .769272446632D-05  .515376977158D+04
     .324000000000D+06 -.242143869400D-07 -.108034083267D+01 -.298023223877D-07
     .969372858271D+00  .237906250000D+03  .267615766827D+01 -.775782314447D-08
    -.259653672761D-09  .100000000000D+01  .233300000000D+04  .000000000000D+00
     .240000000000D+01  .000000000000D+00 -.977888703346D-08  .450000000000D+02
     .316800000000D+06  .400000000000D+01
32 24  9 25 18  0  0.0 -.593593344092D-03  .386535248253D-11  .000000000000D+00
     .400000000000D+02 -.759687500000D+02  .443518474325D-08 -.297886391213D+01
    -.391155481339D-05  .786249188241D-02  .902451574802D-05  .515373348618D+04
     .324000000000D+06  .540167093277D-07  .197546103825D+01 -.150874257088D-06
     .962660100669D+00  .203906250000D+03 -.213556694168D+01 -.777853829306D-08
     .207508643568D-09  .100000000000D+01  .233300000000D+04  .000000000000D+00
     .240000000000D+01  .000000000000D+00  .931322574615D-09  .400000000000D+02
     .316800000000D+06  .400000000000D+01
30 24  9 25 18  0  0.0 -.314511824399D-03  .727595761418D-11  .000000000000D+00
     .720000000000D+02  .181250000000D+01  .528129141556D-08 -.351595364170D+00
    -.372529029846D-08  .717488594819D-02  .799819827080D-05  .515357571983D+04
     .324000000000D+06 -.353902578354D-07  .303165049637D+01  .484287738800D-07
     .935888357495D+00  .210406250000D+03 -.244744591742D+01 -.836320550394D-08
     .817891211309D-10  .100000000000D+01  .233300000000D+04  .000000000000D+00
     .240000000000D+01  .000000000000D+00  .372529029846D-08  .720000000000D+02
     .316800000000D+06  .400000000000D+01
21 24  9 25 18  0  0.0  .101044774055D-03 -.795807864051D-12  .000000000000D+00
     .890000000000D+02  .731875000000D+02  .432446584565D-08  .240907408530D+01
     .368058681488D-05  .253896198701D-01  .417791306973D-05  .515365680695D+04
     .324000000000D+06  .130385160446D-06 -.201353867608D+00  .407919287682D-06
     .961451366069D+00  .295812500000D+03 -.515178620949D+00 -.797426073140D-08
    -.421446126351D-10  .100000000000D+01  .233300000000D+04  .000000000000D+00
     .240000000000D+01  .000000000000D+00 -.102445483208D-07  .890000000000D+02
     .316800000000D+06  .400000000000D+01
20 24  9 25 18  0  0.0  .370281282812D-03 -.341060513165D-12  .000000000000D+00
     .830000000000D+02 -.352500000000D+02  .471591072233D-08  .103990423651D+01
    -.209547579288D-05  .378326233476D-02  .359117984772D-05  .515360660934D+04
     .324000000000D+06 -.167638063431D-07  .759176922149D+00  .149011611938D-07
     .955436977762D+00  .306531250000D+03 -.253471065004D+01 -.834499045949D-08
     .108218793461D-09  .100000000000D+01  .233300000000D+04  .000000000000D+00
     .340000000000D+01  .000000000000D+00 -.838190317154D-08  .830000000000D+02
     .316800000000D+06  .400000000000D+01
